[{"OBJECT_NAME":"COSMO-SKYMED 3","OBJECT_ID":"2008-054A","EPOCH":"2026-03-09T22:03:15.183936","MEAN_MOTION":15.06259488,"ECCENTRICITY":0.00143526,"INCLINATION":97.8419,"RA_OF_ASC_NODE":285.8111,"ARG_OF_PERICENTER":240.3641,"MEAN_ANOMALY":119.6157,"EPHEMERIS_TYPE":0,"CLASSIFICATION_TYPE":"U","NORAD_CAT_ID":33412,"ELEMENT_SET_NO":999,"REV_AT_EPOCH":94199,"BSTAR":0.00061875413,"MEAN_MOTION_DOT":9.042e-5,"MEAN_MOTION_DDOT":0},{"OBJECT_NAME":"STARLINK-4662","OBJECT_ID":"2022-107AQ","EPOCH":"2026-03-09T22:26:24.057024","MEAN_MOTION":15.0884063,"ECCENTRICITY":0.0001431,"INCLINATION":53.2171,"RA_OF_ASC_NODE":262.7944,"ARG_OF_PERICENTER":86.0279,"MEAN_ANOMALY":274.0877,"EPHEMERIS_TYPE":0,"CLASSIFICATION_TYPE":"U","NORAD_CAT_ID":53738,"ELEMENT_SET_NO":999,"REV_AT_EPOCH":19448,"BSTAR":3.5655961e-5,"MEAN_MOTION_DOT":2.8e-6,"MEAN_MOTION_DDOT":0}]
